OBJECT_NAME,OBJECT_ID,EPOCH,MEAN_MOTION,ECCENTRICITY,INCLINATION,RA_OF_ASC_NODE,ARG_OF_PERICENTER,MEAN_ANOMALY,EPHEMERIS_TYPE,CLASSIFICATION_TYPE,NORAD_CAT_ID,ELEMENT_SET_NO,REV_AT_EPOCH,BSTAR,MEAN_MOTION_DOT,MEAN_MOTION_DDOT
BEIDOU-2 IGSO-5 (C10),2011-073A,2026-06-18T16:01:15.839616,1.00272695,.01139717,47.6748,271.5267,221.7702,105.6518,0,U,37948,999,5314,0,-.192E-5,0
LUCH 5A (SDCM/PRN 140),2011-074B,2026-06-19T14:08:01.785120,1.00270759,.00023699,8.7610,73.7726,26.6341,186.3456,0,U,37951,999,5307,0,-.59E-6,0
BEIDOU-2 G5 (C05),2012-008A,2026-06-19T22:39:04.430592,1.00272661,.00090478,3.5816,69.6864,273.1123,323.7890,0,U,38091,999,5239,0,.51E-6,0
BEIDOU-2 M3 (C11),2012-018A,2026-06-19T20:57:49.226688,1.86229594,.00201626,55.7553,304.7847,273.6616,86.1003,0,U,38250,999,9599,0,-.87E-6,0
BEIDOU-2 M4 (C12),2012-018B,2026-06-19T19:20:20.325120,1.86229250,.00113444,55.6555,304.0008,275.1430,84.7206,0,U,38251,999,9599,0,-.86E-6,0
SES-5 (EGNOS/PRN 136),2012-036A,2026-06-20T02:35:15.942624,1.00272034,.00018505,0.0456,317.0080,132.7689,222.3295,0,U,38652,999,4448,0,.29E-6,0
BEIDOU-2 M6 (C14),2012-050B,2026-06-18T23:29:07.603008,1.86230903,.00136377,56.5458,62.8350,357.7339,2.3019,0,U,38775,999,9334,0,-.6E-6,0
GSAT-10 (GAGAN/PRN 128),2012-051B,2026-06-20T01:14:51.980064,1.00272199,.00078249,0.0727,261.4470,186.7659,281.7827,0,U,38779,999,5012,0,-.17E-5,0
GPS BIIF-3  (PRN 24),2012-053A,2026-06-19T19:24:59.978592,2.00567498,.01804665,53.5865,143.4919,65.7943,296.0500,0,U,38833,999,9949,0,.55E-6,0
GSAT0103 (GALILEO-FM3),2012-055A,2026-06-17T11:24:53.398656,1.70473345,.00047719,55.8068,101.5377,306.3432,53.5821,0,U,38857,999,8501,0,-.11E-6,0
BEIDOU-2 G6 (C02),2012-059A,2026-06-19T17:02:03.598368,1.00271500,.00096327,4.4288,73.4979,324.3686,209.6174,0,U,38953,999,4993,0,-.183E-5,0
LUCH 5B (SDCM/PRN 125),2012-061A,2026-06-18T21:24:08.583264,1.00272094,.0002465,10.4892,49.8655,150.1855,11.8366,0,U,38977,999,4962,0,-.148E-5,0
COSMOS 2485 (747),2013-019A,2026-06-16T21:50:24.393120,2.13103258,.00231353,65.4195,73.6140,234.1379,125.6814,0,U,39155,999,10227,0,-.2E-6,0
GPS BIIF-4  (PRN 27),2013-023A,2026-06-19T16:13:32.143872,2.00563426,.01415048,54.5020,268.8722,51.0528,310.2374,0,U,39166,999,9593,0,-.52E-6,0
IRNSS-1A,2013-034A,2026-06-18T21:29:26.733984,1.00275723,.00175894,35.7241,63.8469,183.2529,37.3106,0,U,39199,999,4738,0,.51E-6,0
GPS BIIF-5  (PRN 30),2014-008A,2026-06-20T04:13:54.017760,2.00559961,.00842232,53.6552,149.1977,231.3206,127.9005,0,U,39533,999,8974,0,.63E-6,0
ASTRA 5B (EGNOS/PRN 123),2014-011B,2026-06-20T06:05:49.936416,1.00268959,.00020533,0.0636,312.5658,113.4731,317.3786,0,U,39617,999,4469,0,.132E-5,0
COSMOS 2492 (754),2014-012A,2026-06-18T06:38:22.527168,2.13103143,.0010348,65.2971,313.8989,324.5914,35.3281,0,U,39620,999,9526,0,-.55E-6,0
IRNSS-1B,2014-017A,2026-06-19T18:16:25.595040,1.00277178,.00231505,28.9179,240.3593,189.6008,167.3236,0,U,39635,999,4481,0,.109E-5,0
LUCH 5V (SDCM/PRN 141),2014-023A,2026-06-19T18:27:34.179840,1.00273433,.00018919,5.1398,69.7202,49.9743,159.9136,0,U,39727,999,4438,0,-.276E-5,0
GPS BIIF-6  (PRN 06),2014-026A,2026-06-19T22:52:42.473568,2.00560761,.00381554,56.4969,331.4097,326.5311,33.2215,0,U,39741,999,8859,0,-.9E-6,0
COSMOS 2500 (755),2014-032A,2026-06-19T20:29:59.316864,2.13105731,.00074316,65.2308,313.5924,184.8024,175.1825,0,U,40001,999,9351,0,-.6E-6,0
GPS BIIF-7  (PRN 09),2014-045A,2026-06-20T01:04:53.387040,2.00558575,.00334361,55.3550,88.3511,118.2269,242.1176,0,U,40105,999,8613,0,-.25E-6,0
GSAT0201 (GALILEO 5),2014-050A,2026-06-19T13:44:55.894560,1.85520003,.16749227,48.8729,273.3385,179.4838,180.7636,0,U,40128,999,7836,0,-.74E-6,0
GSAT0202 (GALILEO 6),2014-050B,2026-06-19T19:52:53.439456,1.85520639,.16761882,48.8892,272.4135,180.2230,179.7415,0,U,40129,999,8053,0,-.76E-6,0
IRNSS-1C,2014-061A,2026-06-19T18:59:25.063584,1.00268918,.00226825,6.5240,88.8821,2.7462,184.1889,0,U,40269,999,4271,0,-.168E-5,0
GPS BIIF-8  (PRN 03),2014-068A,2026-06-19T21:57:14.608224,2.00576333,.00671132,56.9895,30.8495,70.6969,290.0787,0,U,40294,999,8526,0,-.91E-6,0
COSMOS 2501 (702K),2014-075A,2026-06-20T02:47:24.156384,2.13101226,.00226332,63.6165,190.2706,212.5171,147.3840,0,U,40315,999,8991,0,.63E-6,0
GPS BIIF-9  (PRN 26),2015-013A,2026-06-20T01:17:51.090720,2.00551222,.01096019,53.1677,204.0589,40.1558,320.7059,0,U,40534,999,8188,0,.35E-6,0
GSAT0203 (GALILEO 7),2015-017A,2026-06-17T19:11:07.295136,1.70476090,.0002098,56.7854,341.5787,276.4201,83.5494,0,U,40544,999,6921,0,-.91E-6,0
GSAT0204 (GALILEO 8),2015-017B,2026-06-19T05:28:49.655136,1.70475686,.0001942,56.7938,341.5583,246.6758,113.2973,0,U,40545,999,3228,0,-.94E-6,0
